satname,norad_id,inclination_deg,eccentricity,mean_motion_rev_per_day,perigee_km,apogee_km,l1,l2
STARLINK-1494,45760,53.052,0.0005429,15.5522258,397.8250259287879,405.1863619658752,1 45760U 20038AG  25344.68723579  .00053442  00000+0  77802-3 0  9994,2 45760  53.0520 227.9133 0005429 131.6175 228.5301 15.55222580303462
STARLINK-1502,45764,53.0539,0.000134,15.06402339,546.2763935032717,548.1323849955916,1 45764U 20038AL  25344.78259517  .00006786  00000+0  47402-3 0  9997,2 45764  53.0539 255.7387 0001340  86.8538 273.2604 15.06402339303087
STARLINK-1470,45772,53.051,0.0007254,15.20567177,499.1362795893019,509.121070630752,1 45772U 20038AU  25343.11616762  .00050631  00000+0  22809-2 0  9992,2 45772  53.0510 232.2248 0007254  65.1891 294.9858 15.20567177303262
STARLINK-1482,45773,53.0525,0.0001363,15.06418838,546.2099056439656,548.0977399222566,1 45773U 20038AV  25344.41584077  .00011004  00000+0  75611-3 0  9991,2 45773  53.0525 237.3832 0001363  96.8898 263.2247 15.06418838303306
STARLINK-1496,45780,53.0536,0.0001402,15.0639733,546.2488061007089,548.1906761309174,1 45780U 20038BC  25344.71439407 -.00000860  00000+0 -38858-4 0  9991,2 45780  53.0536 236.0424 0001402  84.5343 275.5805 15.06397330303334
STARLINK-1497,45781,53.0377,0.0005511,15.6646425,365.31251422590594,372.7492426615272,1 45781U 20038BD  25344.91670139  .00157945  00000+0  14647-2 0  9996,2 45781  53.0377 164.9419 0005511 113.4563 241.6189 15.66464250  5972
STARLINK-1510,45784,53.0234,0.0003517,15.89891003,300.23856837709536,304.9377904683006,1 45784U 20038BG  25344.91670139  .00460606  00000+0  14350-2 0  9991,2 45784  53.0234 135.5114 0003517 290.1509 164.5742 15.89891003  5984
STARLINK-1513,45786,53.0528,0.0004749,15.06404432,543.9091329505009,550.4868161093091,1 45786U 20038BJ  25344.41215821  .00000380  00000+0  44512-4 0  9995,2 45786  53.0528 237.4013 0004749  81.3386 278.8140 15.06404432303306
STARLINK-1522,46027,53.0546,0.0001554,15.06376887,546.2061866858703,548.3586070344136,1 46027U 20055A   25344.79090344 -.00001241  00000+0 -64501-4 0  9994,2 46027  53.0546 165.6996 0001554  91.8434 268.2733 15.06376887295480
STARLINK-1523,46028,53.0555,6.25e-05,15.06384404,546.8265205720772,547.6921951168079,1 46028U 20055B   25344.80562730 -.00001925  00000+0 -11045-3 0  9993,2 46028  53.0555 165.6375 0000625 111.3212 248.7843 15.06384404295504
STARLINK-1526,46029,53.0535,0.0001225,15.06420108,546.301582850896,547.9982781488688,1 46029U 20055C   25344.79822463  .00003023  00000+0  22161-3 0  9994,2 46029  53.0535 165.6658 0001225  87.9418 272.1711 15.06420108295495
STARLINK-1555,46032,53.054,0.0001568,15.06408352,546.1000697392665,548.2718510196419,1 46032U 20055F   25344.78351125  .00002120  00000+0  16112-3 0  9995,2 46032  53.0540 165.7316 0001568  83.9256 276.1911 15.06408352295496
STARLINK-1556,46033,53.0533,0.0001096,15.06371274,546.5405725386636,548.0586282414688,1 46033U 20055G   25344.76509966  .00012393  00000+0  85008-3 0  9995,2 46033  53.0533 165.8159 0001096  78.7459 281.3653 15.06371274295468
STARLINK-1557,46034,53.054,0.0001355,15.06394041,546.2914342709191,548.168208679539,1 46034U 20055H   25344.76876766  .00002044  00000+0  15608-3 0  9992,2 46034  53.0540 165.7983 0001355  99.5107 260.6035 15.06394041295461
STARLINK-1558,46035,53.0537,0.0001356,15.06409588,546.2430989753075,548.1212455348232,1 46035U 20055J   25344.77614631  .00003634  00000+0  26269-3 0  9996,2 46035  53.0537 165.7689 0001356  90.8017 269.3127 15.06409588295490
STARLINK-1560,46036,53.0541,0.0001344,15.06387249,546.3198660938879,548.1814102910339,1 46036U 20055K   25344.49600622  .00002713  00000+0  20102-3 0  9998,2 46036  53.0541 167.0272 0001344  93.8158 266.2984 15.06387249295457
STARLINK-1567,46038,53.0537,0.0001368,15.06395553,546.2777978390868,548.1725769335553,1 46038U 20055M   25344.77245137  .00004357  00000+0  31128-3 0  9993,2 46038  53.0537 165.7837 0001368  85.7379 274.3767 15.06395553295486
STARLINK-1569,46039,53.0529,0.000138,15.06403187,546.2460935064546,548.1574870125651,1 46039U 20055N   25344.77981479  .00001854  00000+0  14329-3 0  9993,2 46039  53.0529 165.7505 0001380  87.3210 272.7937 15.06403187295480
STARLINK-1582,46043,53.0528,0.0001438,15.06400437,546.2143536665071,548.2060835265756,1 46043U 20055S   25344.78719054  .00000016  00000+0  19954-4 0  9996,2 46043  53.0528 165.7158 0001438  91.3009 268.8145 15.06400437295485
STARLINK-1591,46045,53.0538,0.0001239,15.06387121,546.392974922609,548.1090860765662,1 46045U 20055U   25344.81300339  .00002187  00000+0  16572-3 0  9997,2 46045  53.0538 165.6010 0001239  91.2094 268.9037 15.06387121295470
STARLINK-1524,46047,53.0535,0.0001324,15.0639026,546.3244896948481,548.158329897763,1 46047U 20055W   25344.50061831  .00001480  00000+0  11826-3 0  9998,2 46047  53.0535 157.0037 0001324  89.4191 270.6950 15.06390260295589
STARLINK-1527,46048,53.054,0.0001266,15.0639686,546.3444312569591,548.0979319485414,1 46048U 20055X   25344.76230858  .00000371  00000+0  43767-4 0  9992,2 46048  53.0540 155.8276 0001266  79.1358 280.9773 15.06396860295605
STARLINK-1540,46051,53.0544,0.0001142,15.06395813,546.4335142491655,548.0152667907596,1 46051U 20055AA  25343.46854832  .00000377  00000+0  44197-4 0  9990,2 46051  53.0544 161.6358 0001142  74.1302 285.9813 15.06395813295445
STARLINK-1541,46052,53.0537,0.0001352,15.06393867,546.2940450973729,548.1666644301004,1 46052U 20055AB  25344.78073791  .00000944  00000+0  82252-4 0  9998,2 46052  53.0537 155.7436 0001352  89.9392 270.1752 15.06393867295608
STARLINK-1543,46053,53.0555,0.0001753,15.06360467,546.1186886967762,548.546758381849,1 46053U 20055AC  25344.78444700  .00016824  00000+0  11469-2 0  9995,2 46053  53.0555 155.7292 0001753  88.0934 272.0255 15.06360467295638
STARLINK-1548,46054,53.0543,0.0001301,15.06396363,546.3217155442817,548.1236941394818,1 46054U 20055AD  25343.86294134  .00000670  00000+0  63867-4 0  9991,2 46054  53.0543 159.8646 0001301  93.9519 266.1618 15.06396363295492
STARLINK-1554,46055,53.0535,0.0001904,15.06403101,545.8834692803557,548.5206383920568,1 46055U 20055AE  25344.77706343  .00003981  00000+0  28599-3 0  9993,2 46055  53.0535 155.7612 0001904 100.0844 260.0359 15.06403101295632
STARLINK-1564,46058,53.0546,0.0001253,15.06394368,546.3610709237473,548.0965675980542,1 46058U 20055AH  25344.78817330  .00000621  00000+0  60584-4 0  9995,2 46058  53.0546 156.1746 0001253  94.2225 265.8907 15.06394368295629
